*******************************************************************************
 Revised: Mar 12, 2021           Europa / (Jupiter)                         502

 SATELLITE PHYSICAL PROPERTIES:
  Mean radius (km)       = 1560.8   +- 0.3    Density (g cm^-3)= 3.013 +- 0.005
  GM   (km^3/s^2)        = 3202.7121+- 0.0054 Geometric Albedo = 0.67 +/- 0.03  

 SATELLITE ORBIT (at J2000.0 epoch, 2000-Jan-1.5):
  Semi-major axis, a (km) ~ 671,000           Orbital period   ~ 3.55 d
  Eccentricity, e         ~ 0.00981        Rotational period   = Synchronous
  Inclination, i  (deg)   ~ 0.462
*******************************************************************************
 
 
*******************************************************************************
Ephemeris / WWW_USER Fri May 21 12:56:31 2021 Pasadena, USA      / Horizons
*******************************************************************************
Target body name: Europa (502)                    {source: jup365_merged}
Center body name: Jupiter (599)                   {source: jup365_merged}
Center-site name: BODY CENTER
*******************************************************************************
Start time      : A.D. 2000-Jan-01 00:00:00.0000 TDB
Stop  time      : A.D. 2050-Jan-01 00:00:00.0000 TDB
Step-size       : 1440 minutes
*******************************************************************************
Center geodetic : 0.00000000,0.00000000,0.0000000 {W-lon(deg),Lat(deg),Alt(km)}
Center cylindric: 0.00000000,0.00000000,0.0000000 {W-lon(deg),Dxy(km),Dz(km)}
Center radii    : 71492.0 x 71492.0 x 66854.0 km  {Equator, meridian, pole}    
Keplerian GM    : 2.8248323310493208E-07 au^3/d^2
Output units    : AU-D, deg, Julian Day Number (Tp)
Output type     : GEOMETRIC osculating elements
Output format   : 10
Reference frame : Ecliptic of J2000.0
*******************************************************************************
JDTDB
   EC    QR   IN
   OM    W    Tp
   N     MA   TA
   A     AD   PR
*******************************************************************************
$$SOE
2453035.500000000 = A.D. 2004-Jan-31 00:00:00.0000 TDB 
 EC= 9.557412054349328E-03 QR= 4.444327159302895E-03 IN= 1.801002787265066E+00
 OM= 3.447453179997337E+02 W = 2.191430220571533E+02 Tp=  2453036.409843807109
 N = 1.013103691462650E+02 MA= 2.678233880210204E+02 TA= 2.667295422598880E+02
 A = 4.487213305842591E-03 AD= 4.530099452382287E-03 PR= 3.553436859757728E+00
2453036.500000000 = A.D. 2004-Feb-01 00:00:00.0000 TDB 
 EC= 9.691725667057642E-03 QR= 4.442938591307045E-03 IN= 1.801180675907871E+00
 OM= 3.447487982966895E+02 W = 2.210616581152147E+02 Tp=  2453036.428297087550
 N = 1.013372502478600E+02 MA= 7.266176005227865E+00 TA= 7.408349923705605E+00
 A = 4.486419740660802E-03 AD= 4.529900890014559E-03 PR= 3.552494261680467E+00
2453037.500000000 = A.D. 2004-Feb-02 00:00:00.0000 TDB 
 EC= 9.477356559777213E-03 QR= 4.444894078805221E-03 IN= 1.801234000416002E+00
 OM= 3.447573985105573E+02 W = 2.229575533677700E+02 Tp=  2453036.446461147163
 N = 1.013032684422661E+02 MA= 1.067269292120699E+02 TA= 1.077634104798617E+02
 A = 4.487422986482657E-03 AD= 4.529951894160093E-03 PR= 3.553685932701846E+00
2453038.500000000 = A.D. 2004-Feb-03 00:00:00.0000 TDB 
 EC= 9.274809423110634E-03 QR= 4.445846856257160E-03 IN= 1.801532383720574E+00
 OM= 3.447636656748223E+02 W = 2.182134509024961E+02 Tp=  2453039.952384831384
 N = 1.013017692571877E+02 MA= 2.128708469486679E+02 TA= 2.122995814800198E+02
 A = 4.487467259885041E-03 AD= 4.529087663512921E-03 PR= 3.553738524408416E+00
2453039.500000000 = A.D. 2004-Feb-04 00:00:00.0000 TDB 
 EC= 9.753673278713867E-03 QR= 4.443073784378963E-03 IN= 1.801512271398445E+00
 OM= 3.447696182979186E+02 W = 2.182507889612268E+02 Tp=  2453039.952000632882
 N = 1.013231171022891E+02 MA= 3.142018869224365E+02 TA= 3.133937897288812E+02
 A = 4.486836925808165E-03 AD= 4.530600067237366E-03 PR= 3.552989784518451E+00
2453040.500000000 = A.D. 2004-Feb-05 00:00:00.0000 TDB 
 EC= 9.724699103773016E-03 QR= 4.443206261701039E-03 IN= 1.801907051167973E+00
 OM= 3.447828652623616E+02 W = 2.185554532191524E+02 Tp=  2453039.955039791297
 N = 1.013230324448468E+02 MA= 5.521702089019568E+01 TA= 5.613862214411930E+01
 A = 4.486839425036465E-03 AD= 4.530472588371890E-03 PR= 3.552992753113255E+00
2453041.500000000 = A.D. 2004-Feb-06 00:00:00.0000 TDB 
 EC= 9.245130750766824E-03 QR= 4.445915359262118E-03 IN= 1.801972608060238E+00
 OM= 3.447853954604287E+02 W = 2.179973324410890E+02 Tp=  2453039.948712946381
 N = 1.013039798686375E+02 MA= 1.571515524417284E+02 TA= 1.575585775779556E+02
 A = 4.487401977273259E-03 AD= 4.528888595284400E-03 PR= 3.553660976269813E+00
2453042.500000000 = A.D. 2004-Feb-07 00:00:00.0000 TDB 
 EC= 9.521810423517397E-03 QR= 4.444559315694385E-03 IN= 1.802186774001610E+00
 OM= 3.447964807120865E+02 W = 2.138415105139564E+02 Tp=  2453043.460450156126
 N = 1.013078935551218E+02 MA= 2.626988178317688E+02 TA= 2.616182444389980E+02
 A = 4.487286406169962E-03 AD= 4.530013496645538E-03 PR= 3.553523692644181E+00
2453043.500000000 = A.D. 2004-Feb-08 00:00:00.0000 TDB 
 EC= 9.671604026732943E-03 QR= 4.442995235435934E-03 IN= 1.802314600703395E+00
 OM= 3.447994494521097E+02 W = 2.157863106465522E+02 Tp=  2453043.479120736942
 N = 1.013384008155072E+02 MA= 2.115871110196250E+00 TA= 2.157289682601446E+00
 A = 4.486385782232855E-03 AD= 4.529776329029776E-03 PR= 3.552453927661657E+00
2453044.500000000 = A.D. 2004-Feb-09 00:00:00.0000 TDB 
 EC= 9.490525350185920E-03 QR= 4.444778024428863E-03 IN= 1.802402480358508E+00
 OM= 3.448090368380355E+02 W = 2.177744189100990E+02 Tp=  2453043.498233398888
 N = 1.013052157715459E+02 MA= 1.014841816803188E+02 TA= 1.025473704762826E+02
 A = 4.487365480274962E-03 AD= 4.529952936121062E-03 PR= 3.553617622332879E+00
2453045.500000000 = A.D. 2004-Feb-10 00:00:00.0000 TDB 
 EC= 9.229980937090669E-03 QR= 4.446061493115687E-03 IN= 1.802690482706528E+00
 OM= 3.448138032228535E+02 W = 2.133312158206425E+02 Tp=  2453047.007124665659
 N = 1.013013088776027E+02 MA= 2.073262987302754E+02 TA= 2.068456977043471E+02
 A = 4.487480855870935E-03 AD= 4.528900218626182E-03 PR= 3.553754674926955E+00
2453046.500000000 = A.D. 2004-Feb-11 00:00:00.0000 TDB 
 EC= 9.722129793635376E-03 QR= 4.443194245762967E-03 IN= 1.802672875914248E+00
 OM= 3.448212798841450E+02 W = 2.131414880244990E+02 Tp=  2453047.004469497595
 N = 1.013238377960896E+02 MA= 3.088852144467189E+02 TA= 3.080113827343148E+02
 A = 4.486815649871128E-03 AD= 4.530437053979290E-03 PR= 3.552964512896622E+00
2453047.500000000 = A.D. 2004-Feb-12 00:00:00.0000 TDB 
 EC= 9.722996020584197E-03 QR= 4.443210757755093E-03 IN= 1.803082427520961E+00
 OM= 3.448323048877738E+02 W = 2.133895692925326E+02 Tp=  2453047.006940719206
 N = 1.013231400367065E+02 MA= 4.995831455189249E+01 TA= 5.081798717798445E+01
 A = 4.486836248746670E-03 AD= 4.530461739738248E-03 PR= 3.552988980301855E+00
2453048.500000000 = A.D. 2004-Feb-13 00:00:00.0000 TDB 
 EC= 9.232667157245274E-03 QR= 4.445994999131546E-03 IN= 1.803116781234742E+00
 OM= 3.448360418641192E+02 W = 2.131459026554527E+02 Tp=  2453047.003737369087
 N = 1.013031694808791E+02 MA= 1.515761468999476E+02 TA= 1.520746697508552E+02
 A = 4.487425908941602E-03 AD= 4.528856818751659E-03 PR= 3.553689404238726E+00
2453049.500000000 = A.D. 2004-Feb-14 00:00:00.0000 TDB 
 EC= 9.463100089943867E-03 QR= 4.444885480412298E-03 IN= 1.803373621887013E+00
 OM= 3.448461748728207E+02 W = 2.086357024457327E+02 Tp=  2453050.511975856498
 N = 1.013057494733556E+02 MA= 2.574810273972803E+02 TA= 2.564251856027442E+02
 A = 4.487349719950774E-03 AD= 4.529813959489249E-03 PR= 3.553598901064183E+00
2453050.500000000 = A.D. 2004-Feb-15 00:00:00.0000 TDB 
 EC= 9.630338232891977E-03 QR= 4.443171427778575E-03 IN= 1.803455221796535E+00
 OM= 3.448491785789669E+02 W = 2.105329137347019E+02 Tp=  2453050.530151948333
 N = 1.013387067325201E+02 MA= 3.569444405484219E+02 TA= 3.568849009451329E+02
 A = 4.486376753353553E-03 AD= 4.529582078928532E-03 PR= 3.552443203663603E+00
2453051.500000000 = A.D. 2004-Feb-16 00:00:00.0000 TDB 
 EC= 9.477560656461390E-03 QR= 4.444789870330847E-03 IN= 1.803587468493508E+00
 OM= 3.448593658057619E+02 W = 2.126064990360921E+02 Tp=  2453050.550139714032
 N = 1.013067997473606E+02 MA= 9.622730576521639E+01 TA= 9.730549652166303E+01
 A = 4.487318705547548E-03 AD= 4.529847540764249E-03 PR= 3.553562059977907E+00
2453052.500000000 = A.D. 2004-Feb-17 00:00:00.0000 TDB 
 EC= 9.185721034474717E-03 QR= 4.446205224866063E-03 IN= 1.803844194777807E+00
 OM= 3.448626991753437E+02 W = 2.084757298069484E+02 Tp=  2453054.062080916949
 N = 1.013031845701557E+02 MA= 2.017562285729088E+02 TA= 2.013701927443476E+02
 A = 4.487425463335260E-03 AD= 4.528645701804456E-03 PR= 3.553688874910824E+00
2453053.500000000 = A.D. 2004-Feb-18 00:00:00.0000 TDB 
 EC= 9.681926398448457E-03 QR= 4.443375734621470E-03 IN= 1.803848187553012E+00
 OM= 3.448713690525614E+02 W = 2.078895515484205E+02 Tp=  2453054.055506501347
 N = 1.013238000462072E+02 MA= 3.037139703205565E+02 TA= 3.027848959640971E+02
 A = 4.486816764296715E-03 AD= 4.530257793971959E-03 PR= 3.552965836613188E+00
2453054.500000000 = A.D. 2004-Feb-19 00:00:00.0000 TDB 
 EC= 9.713726417514744E-03 QR= 4.443277960671709E-03 IN= 1.804250007636380E+00
 OM= 3.448801618277367E+02 W = 2.081186660612137E+02 Tp=  2453054.057771302760
 N = 1.013222639751351E+02 MA= 4.480761280094553E+01 TA= 4.559884264495559E+01
 A = 4.486862111697853E-03 AD= 4.530446262723998E-03 PR= 3.553019700471215E+00
2453055.500000000 = A.D. 2004-Feb-20 00:00:00.0000 TDB 
 EC= 9.228725624837498E-03 QR= 4.446014163388010E-03 IN= 1.804271171175721E+00
 OM= 3.448854893688588E+02 W = 2.081019585896400E+02 Tp=  2453054.056858255528
 N = 1.013031190030207E+02 MA= 1.461947598885982E+02 TA= 1.467775432587073E+02
 A = 4.487427399620487E-03 AD= 4.528840635852963E-03 PR= 3.553691174990036E+00
